[{"OBJECT_NAME":"IRIDIUM 170","OBJECT_ID":"2019-002J","EPOCH":"2026-03-09T22:22:31.188288","MEAN_MOTION":14.72262238,"ECCENTRICITY":0.00027319,"INCLINATION":86.6095,"RA_OF_ASC_NODE":35.0236,"ARG_OF_PERICENTER":88.7648,"MEAN_ANOMALY":271.3882,"EPHEMERIS_TYPE":0,"CLASSIFICATION_TYPE":"U","NORAD_CAT_ID":43930,"ELEMENT_SET_NO":999,"REV_AT_EPOCH":38465,"BSTAR":0.00020964732,"MEAN_MOTION_DOT":1.347e-5,"MEAN_MOTION_DDOT":0},{"OBJECT_NAME":"NOAA 16 DEB","OBJECT_ID":"2000-055QH","EPOCH":"2026-03-09T15:04:09.573312","MEAN_MOTION":14.74544722,"ECCENTRICITY":0.0024856,"INCLINATION":98.7212,"RA_OF_ASC_NODE":213.2868,"ARG_OF_PERICENTER":301.3825,"MEAN_ANOMALY":58.495,"EPHEMERIS_TYPE":0,"CLASSIFICATION_TYPE":"U","NORAD_CAT_ID":42341,"ELEMENT_SET_NO":999,"REV_AT_EPOCH":52612,"BSTAR":0.0039357,"MEAN_MOTION_DOT":0.00026363,"MEAN_MOTION_DDOT":0}]
